IRS-P5 (CARTOSAT-1)     
1 28649U 05017A   26185.52626062  .00002033  00000+0  21044-3 0  9994
2 28649  97.5305 207.8041 0002004  59.7616 300.3801 14.91099495146403
KAZEOSAT 1              
1 39731U 14024A   26184.95150596  .00000076  00000+0  36169-4 0  9996
2 39731  98.3202 256.9818 0001156  78.7649 281.3671 14.42086207640970
KAZEOSAT 2              
1 40010U 14033A   26185.60889116  .00000018  00000+0  79145-5 0  9996
2 40010  97.5395  24.2993 0007003 261.8722  98.1699 14.85488912651545
JASON-3                 
1 41240U 16002A   26185.63383366 -.00000010  00000+0  20827-3 0  9993
2 41240  66.0418  89.1569 0008285 271.7864  88.2206 12.87623482489497
KAZSTSAT                
1 43783U 18099AB  26185.50962592  .00002428  00000+0  19998-3 0  9996
2 43783  97.4306 216.6545 0008169  19.9379 340.2163 14.99932801413909
INSAT-3DS               
1 58990U 24033A   26185.59496204 -.00000144  00000+0  00000+0 0  9992
2 58990   0.0757  96.3178 0001237  12.9123 109.6149  1.00273286 47243
IONOSFERA-M 1           
1 61735U 24199A   26185.63460330  .00000088  00000+0  58810-4 0  9995
2 61735  98.7150  58.6208 0002203  87.0812 273.0618 14.22757784130183
IONOSFERA-M 2           
1 61736U 24199B   26185.59853089  .00000093  00000+0  61336-4 0  9991
2 61736  98.7149  58.4956 0000357  59.9165 300.2048 14.22761127133300
IONOSFERA-M 3           
1 64876U 25155A   26185.63182306  .00000088  00000+0  59717-4 0  9998
2 64876  98.6034 147.0984 0001916 128.3379 231.7971 14.21489596 48883
IONOSFERA-M 4           
1 64877U 25155B   26185.59624657  .00000093  00000+0  62014-4 0  9994
2 64877  98.6039 146.9809 0001614 109.8998 250.2353 14.21491999 48878
